STARLINK-30088          
1 57462U 23107F   26068.09384293  .00006778  00000+0  26191-3 0  9996
2 57462  43.0038 339.6676 0001941 259.6478 100.4155 15.26769614145058
HAWK-11B                
1 62379U 24247C   26068.44730104  .00009093  00000+0  32842-3 0  9993
2 62379  45.0161 115.7610 0004690 333.0326  27.0314 15.28847070 67738
